[{"OBJECT_NAME":"STARLINK-30972","OBJECT_ID":"2024-002S","EPOCH":"2026-01-25T00:00:04.000320","MEAN_MOTION":15.30156368,"ECCENTRICITY":0.00012996,"INCLINATION":53.1591,"RA_OF_ASC_NODE":72.774,"ARG_OF_PERICENTER":82.3155,"MEAN_ANOMALY":58.5833,"EPHEMERIS_TYPE":0,"CLASSIFICATION_TYPE":"U","NORAD_CAT_ID":58721,"ELEMENT_SET_NO":999,"REV_AT_EPOCH":582,"BSTAR":0.0023700785,"MEAN_MOTION_DOT":0.00070408,"MEAN_MOTION_DDOT":0},{"OBJECT_NAME":"STARLINK-31040","OBJECT_ID":"2024-002T","EPOCH":"2026-01-24T09:41:06.767520","MEAN_MOTION":15.30198312,"ECCENTRICITY":0.00013017,"INCLINATION":53.1605,"RA_OF_ASC_NODE":75.7226,"ARG_OF_PERICENTER":123.0894,"MEAN_ANOMALY":237.0232,"EPHEMERIS_TYPE":0,"CLASSIFICATION_TYPE":"U","NORAD_CAT_ID":58722,"ELEMENT_SET_NO":999,"REV_AT_EPOCH":11523,"BSTAR":7.014745e-6,"MEAN_MOTION_DOT":-1.51e-6,"MEAN_MOTION_DDOT":0},{"OBJECT_NAME":"STARLINK-31033","OBJECT_ID":"2024-002U","EPOCH":"2026-01-24T21:59:52.133568","MEAN_MOTION":15.30196628,"ECCENTRICITY":0.00012837,"INCLINATION":53.1604,"RA_OF_ASC_NODE":73.2401,"ARG_OF_PERICENTER":81.119,"MEAN_ANOMALY":278.9956,"EPHEMERIS_TYPE":0,"CLASSIFICATION_TYPE":"U","NORAD_CAT_ID":58723,"ELEMENT_SET_NO":999,"REV_AT_EPOCH":11531,"BSTAR":-3.3313956e-5,"MEAN_MOTION_DOT":-1.346e-5,"MEAN_MOTION_DDOT":0},{"OBJECT_NAME":"STARLINK-30893","OBJECT_ID":"2024-002V","EPOCH":"2026-01-24T09:59:20.881824","MEAN_MOTION":15.30202787,"ECCENTRICITY":0.00010033,"INCLINATION":53.1586,"RA_OF_ASC_NODE":75.8111,"ARG_OF_PERICENTER":87.2388,"MEAN_ANOMALY":272.8728,"EPHEMERIS_TYPE":0,"CLASSIFICATION_TYPE":"U","NORAD_CAT_ID":58724,"ELEMENT_SET_NO":999,"REV_AT_EPOCH":11522,"BSTAR":5.6664205e-5,"MEAN_MOTION_DOT":1.32e-5,"MEAN_MOTION_DDOT":0},{"OBJECT_NAME":"STARLINK-30856","OBJECT_ID":"2024-002W","EPOCH":"2026-01-24T10:55:25.357440","MEAN_MOTION":15.30188741,"ECCENTRICITY":0.00011263,"INCLINATION":53.1629,"RA_OF_ASC_NODE":75.3399,"ARG_OF_PERICENTER":60.6684,"MEAN_ANOMALY":299.4429,"EPHEMERIS_TYPE":0,"CLASSIFICATION_TYPE":"U","NORAD_CAT_ID":58725,"ELEMENT_SET_NO":999,"REV_AT_EPOCH":11524,"BSTAR":-1.9746973e-5,"MEAN_MOTION_DOT":-9.44e-6,"MEAN_MOTION_DDOT":0},{"OBJECT_NAME":"STARLINK-31115","OBJECT_ID":"2024-005B","EPOCH":"2026-01-24T14:21:09.286560","MEAN_MOTION":15.02573167,"ECCENTRICITY":0.00015052,"INCLINATION":43.0033,"RA_OF_ASC_NODE":100.81,"ARG_OF_PERICENTER":262.9876,"MEAN_ANOMALY":97.0795,"EPHEMERIS_TYPE":0,"CLASSIFICATION_TYPE":"U","NORAD_CAT_ID":58729,"ELEMENT_SET_NO":999,"REV_AT_EPOCH":11378,"BSTAR":0.00036637788,"MEAN_MOTION_DOT":4.754e-5,"MEAN_MOTION_DDOT":0},{"OBJECT_NAME":"STARLINK-31180","OBJECT_ID":"2024-005E","EPOCH":"2026-01-24T14:59:33.158976","MEAN_MOTION":15.02530956,"ECCENTRICITY":0.00013788,"INCLINATION":43.0018,"RA_OF_ASC_NODE":101.0211,"ARG_OF_PERICENTER":259.3896,"MEAN_ANOMALY":100.6791,"EPHEMERIS_TYPE":0,"CLASSIFICATION_TYPE":"U","NORAD_CAT_ID":58732,"ELEMENT_SET_NO":999,"REV_AT_EPOCH":11378,"BSTAR":-0.00045671326,"MEAN_MOTION_DOT":-6.367e-5,"MEAN_MOTION_DDOT":0},{"OBJECT_NAME":"STARLINK-31164","OBJECT_ID":"2024-005F","EPOCH":"2026-01-24T14:16:32.335680","MEAN_MOTION":15.02558195,"ECCENTRICITY":9.667e-5,"INCLINATION":43.0069,"RA_OF_ASC_NODE":101.6473,"ARG_OF_PERICENTER":280.6209,"MEAN_ANOMALY":79.4525,"EPHEMERIS_TYPE":0,"CLASSIFICATION_TYPE":"U","NORAD_CAT_ID":58733,"ELEMENT_SET_NO":999,"REV_AT_EPOCH":11377,"BSTAR":0.0001047523,"MEAN_MOTION_DOT":1.212e-5,"MEAN_MOTION_DDOT":0},{"OBJECT_NAME":"STARLINK-31152","OBJECT_ID":"2024-005G","EPOCH":"2026-01-24T14:11:45.519648","MEAN_MOTION":15.025446,"ECCENTRICITY":0.00011907,"INCLINATION":43.003,"RA_OF_ASC_NODE":101.6217,"ARG_OF_PERICENTER":288.4378,"MEAN_ANOMALY":71.6335,"EPHEMERIS_TYPE":0,"CLASSIFICATION_TYPE":"U","NORAD_CAT_ID":58734,"ELEMENT_SET_NO":999,"REV_AT_EPOCH":11378,"BSTAR":0.00021557214,"MEAN_MOTION_DOT":2.71e-5,"MEAN_MOTION_DDOT":0},{"OBJECT_NAME":"STARLINK-31157","OBJECT_ID":"2024-005H","EPOCH":"2026-01-24T14:06:58.440096","MEAN_MOTION":15.0254807,"ECCENTRICITY":0.00011435,"INCLINATION":43.0039,"RA_OF_ASC_NODE":101.5926,"ARG_OF_PERICENTER":271.2127,"MEAN_ANOMALY":88.8584,"EPHEMERIS_TYPE":0,"CLASSIFICATION_TYPE":"U","NORAD_CAT_ID":58735,"ELEMENT_SET_NO":999,"REV_AT_EPOCH":11378,"BSTAR":0.00014600007,"MEAN_MOTION_DOT":1.77e-5,"MEAN_MOTION_DDOT":0},{"OBJECT_NAME":"STARLINK-31076","OBJECT_ID":"2024-005J","EPOCH":"2026-01-24T14:02:10.519872","MEAN_MOTION":15.0255064,"ECCENTRICITY":0.0002039,"INCLINATION":43.0064,"RA_OF_ASC_NODE":101.571,"ARG_OF_PERICENTER":270.953,"MEAN_ANOMALY":89.1079,"EPHEMERIS_TYPE":0,"CLASSIFICATION_TYPE":"U","NORAD_CAT_ID":58736,"ELEMENT_SET_NO":999,"REV_AT_EPOCH":11382,"BSTAR":1.8849757e-5,"MEAN_MOTION_DOT":5.1e-7,"MEAN_MOTION_DDOT":0},{"OBJECT_NAME":"STARLINK-31101","OBJECT_ID":"2024-005K","EPOCH":"2026-01-24T13:52:34.758912","MEAN_MOTION":15.02540158,"ECCENTRICITY":0.00016332,"INCLINATION":43.0033,"RA_OF_ASC_NODE":101.519,"ARG_OF_PERICENTER":269.46,"MEAN_ANOMALY":90.6056,"EPHEMERIS_TYPE":0,"CLASSIFICATION_TYPE":"U","NORAD_CAT_ID":58737,"ELEMENT_SET_NO":999,"REV_AT_EPOCH":11377,"BSTAR":9.4824265e-5,"MEAN_MOTION_DOT":1.078e-5,"MEAN_MOTION_DDOT":0},{"OBJECT_NAME":"STARLINK-31108","OBJECT_ID":"2024-005L","EPOCH":"2026-01-24T13:57:22.234176","MEAN_MOTION":15.0256304,"ECCENTRICITY":8.019e-5,"INCLINATION":43.0032,"RA_OF_ASC_NODE":101.5441,"ARG_OF_PERICENTER":271.9767,"MEAN_ANOMALY":88.0984,"EPHEMERIS_TYPE":0,"CLASSIFICATION_TYPE":"U","NORAD_CAT_ID":58738,"ELEMENT_SET_NO":999,"REV_AT_EPOCH":11377,"BSTAR":-0.00042031851,"MEAN_MOTION_DOT":-5.881e-5,"MEAN_MOTION_DDOT":0},{"OBJECT_NAME":"STARLINK-31042","OBJECT_ID":"2024-005M","EPOCH":"2026-01-24T13:47:45.528864","MEAN_MOTION":15.02584816,"ECCENTRICITY":0.00013426,"INCLINATION":43.0018,"RA_OF_ASC_NODE":101.4898,"ARG_OF_PERICENTER":267.2446,"MEAN_ANOMALY":92.8242,"EPHEMERIS_TYPE":0,"CLASSIFICATION_TYPE":"U","NORAD_CAT_ID":58739,"ELEMENT_SET_NO":999,"REV_AT_EPOCH":11378,"BSTAR":-0.00069332927,"MEAN_MOTION_DOT":-9.569e-5,"MEAN_MOTION_DDOT":0},{"OBJECT_NAME":"STARLINK-31159","OBJECT_ID":"2024-005N","EPOCH":"2026-01-24T15:18:43.989696","MEAN_MOTION":15.02539401,"ECCENTRICITY":0.00015521,"INCLINATION":43.0038,"RA_OF_ASC_NODE":101.1079,"ARG_OF_PERICENTER":261.0989,"MEAN_ANOMALY":98.9678,"EPHEMERIS_TYPE":0,"CLASSIFICATION_TYPE":"U","NORAD_CAT_ID":58740,"ELEMENT_SET_NO":999,"REV_AT_EPOCH":11388,"BSTAR":-0.00011954111,"MEAN_MOTION_DOT":-1.818e-5,"MEAN_MOTION_DDOT":0},{"OBJECT_NAME":"STARLINK-31148","OBJECT_ID":"2024-005P","EPOCH":"2026-01-24T15:13:56.263008","MEAN_MOTION":15.02546697,"ECCENTRICITY":0.00011975,"INCLINATION":43.0001,"RA_OF_ASC_NODE":101.101,"ARG_OF_PERICENTER":266.0525,"MEAN_ANOMALY":94.018,"EPHEMERIS_TYPE":0,"CLASSIFICATION_TYPE":"U","NORAD_CAT_ID":58741,"ELEMENT_SET_NO":999,"REV_AT_EPOCH":11379,"BSTAR":-6.894276e-5,"MEAN_MOTION_DOT":-1.135e-5,"MEAN_MOTION_DDOT":0},{"OBJECT_NAME":"STARLINK-31151","OBJECT_ID":"2024-005Q","EPOCH":"2026-01-24T13:33:24.411168","MEAN_MOTION":15.02555814,"ECCENTRICITY":6.964e-5,"INCLINATION":43.0004,"RA_OF_ASC_NODE":101.4354,"ARG_OF_PERICENTER":265.7367,"MEAN_ANOMALY":94.3395,"EPHEMERIS_TYPE":0,"CLASSIFICATION_TYPE":"U","NORAD_CAT_ID":58742,"ELEMENT_SET_NO":999,"REV_AT_EPOCH":11387,"BSTAR":0.0001596143,"MEAN_MOTION_DOT":1.954e-5,"MEAN_MOTION_DDOT":0},{"OBJECT_NAME":"STARLINK-31156","OBJECT_ID":"2024-005R","EPOCH":"2026-01-24T15:04:22.522080","MEAN_MOTION":15.02429587,"ECCENTRICITY":6.627e-5,"INCLINATION":43.0055,"RA_OF_ASC_NODE":101.0481,"ARG_OF_PERICENTER":261.1544,"MEAN_ANOMALY":98.9223,"EPHEMERIS_TYPE":0,"CLASSIFICATION_TYPE":"U","NORAD_CAT_ID":58743,"ELEMENT_SET_NO":999,"REV_AT_EPOCH":11384,"BSTAR":0.0016433297,"MEAN_MOTION_DOT":0.00022002,"MEAN_MOTION_DDOT":0},{"OBJECT_NAME":"STARLINK-31167","OBJECT_ID":"2024-005S","EPOCH":"2026-01-24T19:34:41.737440","MEAN_MOTION":15.2757645,"ECCENTRICITY":0.00020815,"INCLINATION":43.005,"RA_OF_ASC_NODE":322.0827,"ARG_OF_PERICENTER":265.0593,"MEAN_ANOMALY":95.0021,"EPHEMERIS_TYPE":0,"CLASSIFICATION_TYPE":"U","NORAD_CAT_ID":58744,"ELEMENT_SET_NO":999,"REV_AT_EPOCH":11549,"BSTAR":-7.5298825e-5,"MEAN_MOTION_DOT":-2.334e-5,"MEAN_MOTION_DDOT":0},{"OBJECT_NAME":"STARLINK-31176","OBJECT_ID":"2024-005T","EPOCH":"2026-01-24T14:54:45.048672","MEAN_MOTION":15.0254969,"ECCENTRICITY":0.00015092,"INCLINATION":43.0031,"RA_OF_ASC_NODE":100.9971,"ARG_OF_PERICENTER":266.2507,"MEAN_ANOMALY":93.8163,"EPHEMERIS_TYPE":0,"CLASSIFICATION_TYPE":"U","NORAD_CAT_ID":58745,"ELEMENT_SET_NO":999,"REV_AT_EPOCH":11383,"BSTAR":0.00014850543,"MEAN_MOTION_DOT":1.804e-5,"MEAN_MOTION_DDOT":0},{"OBJECT_NAME":"STARLINK-31181","OBJECT_ID":"2024-005U","EPOCH":"2026-01-24T19:49:03.364896","MEAN_MOTION":15.27582604,"ECCENTRICITY":0.00023023,"INCLINATION":43.0034,"RA_OF_ASC_NODE":315.2354,"ARG_OF_PERICENTER":285.1098,"MEAN_ANOMALY":74.9499,"EPHEMERIS_TYPE":0,"CLASSIFICATION_TYPE":"U","NORAD_CAT_ID":58746,"ELEMENT_SET_NO":999,"REV_AT_EPOCH":11557,"BSTAR":-8.7024813e-5,"MEAN_MOTION_DOT":-2.657e-5,"MEAN_MOTION_DDOT":0},{"OBJECT_NAME":"STARLINK-31183","OBJECT_ID":"2024-005V","EPOCH":"2026-01-24T14:45:10.080000","MEAN_MOTION":15.02545353,"ECCENTRICITY":0.00012204,"INCLINATION":43.0044,"RA_OF_ASC_NODE":100.9459,"ARG_OF_PERICENTER":272.7646,"MEAN_ANOMALY":87.3057,"EPHEMERIS_TYPE":0,"CLASSIFICATION_TYPE":"U","NORAD_CAT_ID":58747,"ELEMENT_SET_NO":999,"REV_AT_EPOCH":11389,"BSTAR":0.00016790623,"MEAN_MOTION_DOT":2.066e-5,"MEAN_MOTION_DDOT":0},{"OBJECT_NAME":"STARLINK-31165","OBJECT_ID":"2024-005W","EPOCH":"2026-01-24T14:49:57.124128","MEAN_MOTION":15.0253685,"ECCENTRICITY":0.00015915,"INCLINATION":43.0048,"RA_OF_ASC_NODE":100.9683,"ARG_OF_PERICENTER":279.3785,"MEAN_ANOMALY":80.6877,"EPHEMERIS_TYPE":0,"CLASSIFICATION_TYPE":"U","NORAD_CAT_ID":58748,"ELEMENT_SET_NO":999,"REV_AT_EPOCH":11379,"BSTAR":0.00027009374,"MEAN_MOTION_DOT":3.447e-5,"MEAN_MOTION_DDOT":0}]
